[{"OBJECT_NAME":"STARLINK-5893","OBJECT_ID":"2023-037AQ","EPOCH":"2026-03-09T21:53:15.441792","MEAN_MOTION":14.98316612,"ECCENTRICITY":0.00025518,"INCLINATION":69.9981,"RA_OF_ASC_NODE":264.0104,"ARG_OF_PERICENTER":278.3989,"MEAN_ANOMALY":81.688,"EPHEMERIS_TYPE":0,"CLASSIFICATION_TYPE":"U","NORAD_CAT_ID":55952,"ELEMENT_SET_NO":999,"REV_AT_EPOCH":16450,"BSTAR":4.7600036e-5,"MEAN_MOTION_DOT":4.75e-6,"MEAN_MOTION_DDOT":0},{"OBJECT_NAME":"COSMOS 2251 DEB","OBJECT_ID":"1993-036BDM","EPOCH":"2026-03-07T08:26:45.291840","MEAN_MOTION":15.06951358,"ECCENTRICITY":0.00416459,"INCLINATION":73.8833,"RA_OF_ASC_NODE":199.9445,"ARG_OF_PERICENTER":129.9164,"MEAN_ANOMALY":230.5698,"EPHEMERIS_TYPE":0,"CLASSIFICATION_TYPE":"U","NORAD_CAT_ID":36551,"ELEMENT_SET_NO":999,"REV_AT_EPOCH":68204,"BSTAR":0.0035281021,"MEAN_MOTION_DOT":0.00054188,"MEAN_MOTION_DDOT":0}]
